IRIDIUM 36 [-]          
1 24967U 97056C   23364.59971990  .00000504  00000+0  16507-3 0  9992
2 24967  86.3960  37.4536 0002053  90.1034 270.0398 14.36565291375441
IRIDIUM 39 [-]          
1 25042U 97069D   23365.29904311  .00000855  00000+0  22667-3 0  9995
2 25042  86.3910  79.8263 0016291 289.6891  70.2554 14.47596809371949
IRIDIUM 38 [-]          
1 25043U 97069E   23364.80007212  .00000675  00000+0  22113-3 0  9992
2 25043  86.3961  97.8472 0003956  81.6703 278.4943 14.37034176369184
IRIDIUM 42 [-]          
1 25077U 97077A   23365.34982638  .00000610  00000+0  20593-3 0  9991
2 25077  86.3967 103.1366 0002662  87.1464 273.0037 14.35331448364593
IRIDIUM 44 [-]          
1 25078U 97077B   23365.75863761  .00000629  00000+0  19689-3 0  9996
2 25078  86.3951  86.3159 0002219  42.5886 317.5484 14.39143368366981
IRIDIUM 45 [-]          
1 25104U 97082A   23365.82812798  .00008096  00000+0  49783-3 0  9998
2 25104  86.3758 300.9664 0175941 128.8835 232.8242 14.97765547371864
IRIDIUM 24 [-]          
1 25105U 97082B   23365.84574871  .00000835  00000+0  25405-3 0  9996
2 25105  86.3915 306.1574 0013106  46.3256 313.9028 14.40910051366635
IRIDIUM 51 [-]          
1 25262U 98018A   23364.90859855  .00011689  00000+0  61275-3 0  9998
2 25262  86.3919 311.7126 0162788  84.6979 277.2805 15.04784250366126
